ONEWEB-0229             
1 48779U 21045N   24289.69042269  .00000073  00000+0  16034-3 0  9996
2 48779  87.9122  20.5061 0001927 104.1589 255.9755 13.15552198164275
ONEWEB-0228             
1 48780U 21045P   24290.33136732  .00000160  00000+0  39152-3 0  9993
2 48780  87.9121  20.3589 0001999 102.1515 257.9839 13.15551010165408
ONEWEB-0232             
1 48781U 21045Q   24290.23075655 -.00000168  00000+0 -47939-3 0  9991
2 48781  87.9115  20.3877 0001880 101.3714 258.7628 13.15548218165707
ONEWEB-0231             
1 48782U 21045R   24289.52404613 -.00000062  00000+0 -19757-3 0  9992
2 48782  87.9130  20.5754 0002135 101.7811 258.3559 13.15545998165326
ONEWEB-0234             
1 48783U 21045S   24290.15232023  .00000039  00000+0  69842-4 0  9991
2 48783  87.9121  20.4010 0001426  57.8097 302.3172 13.15546772165535
ONEWEB-0238             
1 48784U 21045T   24290.18242215  .00000184  00000+0  45366-3 0  9994
2 48784  87.9124  20.4118 0001655  98.6613 261.4705 13.15551858165436
ONEWEB-0240             
1 48785U 21045U   24290.19193005  .00000050  00000+0  99487-4 0  9994
2 48785  87.9123  20.3767 0002167  94.5835 265.5543 13.15551991165450
ONEWEB-0246             
1 48786U 21045V   24290.18638402  .00000109  00000+0  25538-3 0  9999
2 48786  87.9125  20.3839 0001963 103.7894 256.3455 13.15547118165326
